COMMENT,ORIGINATOR,NORAD_CAT_ID,OBJECT_NAME,OBJECT_TYPE,CLASSIFICATION_TYPE,INTLDES,EPOCH,EPOCH_MICROSECONDS,MEAN_MOTION,ECCENTRICITY,INCLINATION,RA_OF_ASC_NODE,ARG_OF_PERICENTER,MEAN_ANOMALY,EPHEMERIS_TYPE,ELEMENT_SET_NO,REV_AT_EPOCH,BSTAR,MEAN_MOTION_DOT,MEAN_MOTION_DDOT,FILE,TLE_LINE0,TLE_LINE1,TLE_LINE2,OBJECT_ID,OBJECT_NUMBER,SEMIMAJOR_AXIS,PERIOD,APOGEE,PERIGEE,DECAYED
"GENERATED VIA SPACETRACK.ORG API","18 SPCS","48888","SPACEBEE-103","PAYLOAD","U","21059K","2023-01-30 08:34:37","713216","15.22080227","0.0008221","97.5767","165.0929","33.0577","327.1171","0","999","8836","0.00074072","0.0001692","0","3765322","0 SPACEBEE-103","1 48888U 21059K   23030.35738094  .00016920  00000-0  74072-3 0  9991","2 48888  97.5767 165.0929 0008221  33.0577 327.1171 15.22080227 88365","2021-059K","48888","6877.704","94.607","505.223","493.915","0"
"GENERATED VIA SPACETRACK.ORG API","18 SPCS","48888","SPACEBEE-103","PAYLOAD","U","21059K","2023-01-30 08:34:37","713216","15.22080227","0.0008221","97.5767","165.0929","33.0577","327.1171","0","999","8836","0.00074072","0.0001692","0","3765576","0 SPACEBEE-103","1 48888U 21059K   23030.35738094  .00016920  00000-0  74072-3 0  9991","2 48888  97.5767 165.0929 0008221  33.0577 327.1171 15.22080227 88365","2021-059K","48888","6877.704","94.607","505.223","493.915","0"
"GENERATED VIA SPACETRACK.ORG API","18 SPCS","48888","SPACEBEE-103","PAYLOAD","U","21059K","2023-01-31 14:33:17","222976","15.22125957","0.0008154","97.5764","166.3516","28.6682","331.5001","0","999","8855","0.00083361","0.00019082","0","3766406","0 SPACEBEE-103","1 48888U 21059K   23031.60644934  .00019082  00000-0  83361-3 0  9992","2 48888  97.5764 166.3516 0008154  28.6682 331.5001 15.22125957 88552","2021-059K","48888","6877.566","94.605","505.039","493.823","0"
"GENERATED VIA SPACETRACK.ORG API","18 SPCS","48888","SPACEBEE-103","PAYLOAD","U","21059K","2023-01-31 14:33:17","222976","15.22125957","0.0008154","97.5764","166.3516","28.6682","331.5001","0","999","8855","0.00083361","0.00019082","0","3766475","0 SPACEBEE-103","1 48888U 21059K   23031.60644934  .00019082  00000-0  83361-3 0  9992","2 48888  97.5764 166.3516 0008154  28.6682 331.5001 15.22125957 88552","2021-059K","48888","6877.566","94.605","505.039","493.823","0"
"GENERATED VIA SPACETRACK.ORG API","18 SPCS","48888","SPACEBEE-103","PAYLOAD","U","21059K","2023-02-01 07:54:35","406144","15.22154455","0.0008102","97.5765","167.0803","25.9076","334.2564","0","999","8866","0.00085933","0.00019691","0","3767525","0 SPACEBEE-103","1 48888U 21059K   23032.32957646  .00019691  00000-0  85933-3 0  9992","2 48888  97.5765 167.0803 0008102  25.9076 334.2564 15.22154455 88661","2021-059K","48888","6877.480","94.603","504.918","493.773","0"
"GENERATED VIA SPACETRACK.ORG API","18 SPCS","48888","SPACEBEE-103","PAYLOAD","U","21059K","2023-02-02 02:50:32","56512","15.22184951","0.0008102","97.5768","167.8752","23.3924","336.7679","0","999","8878","0.00082602","0.0001894","0","3768156","0 SPACEBEE-103","1 48888U 21059K   23033.11842658  .00018940  00000-0  82602-3 0  9992","2 48888  97.5768 167.8752 0008102  23.3924 336.7679 15.22184951 88780","2021-059K","48888","6877.389","94.601","504.826","493.681","0"
"GENERATED VIA SPACETRACK.ORG API","18 SPCS","48888","SPACEBEE-103","PAYLOAD","U","21059K","2023-02-02 07:34:30","921024","15.22199426","0.0008098","97.5769","168.074","22.4726","337.6863","0","999","8881","0.0010151","0.00023315","0","3768366","0 SPACEBEE-103","1 48888U 21059K   23033.31563566  .00023315  00000-0  10151-2 0  9993","2 48888  97.5769 168.0740 0008098  22.4726 337.6863 15.22199426 88817","2021-059K","48888","6877.345","94.600","504.779","493.641","0"
"GENERATED VIA SPACETRACK.ORG API","18 SPCS","48888","SPACEBEE-103","PAYLOAD","U","21059K","2023-02-02 07:34:30","921024","15.22199426","0.0008098","97.5769","168.074","22.4726","337.6863","0","999","8881","0.0010151","0.00023315","0","3769045","0 SPACEBEE-103","1 48888U 21059K   23033.31563566  .00023315  00000-0  10151-2 0  9993","2 48888  97.5769 168.0740 0008098  22.4726 337.6863 15.22199426 88817","2021-059K","48888","6877.345","94.600","504.779","493.641","0"
"GENERATED VIA SPACETRACK.ORG API","18 SPCS","48888","SPACEBEE-103","PAYLOAD","U","21059K","2023-02-03 08:49:03","563904","15.22240196","0.0008078","97.5773","169.1341","19.0767","341.077","0","999","8897","0.0008607","0.00019772","0","3770213","0 SPACEBEE-103","1 48888U 21059K   23034.36740236  .00019772  00000-0  86070-3 0  9996","2 48888  97.5773 169.1341 0008078  19.0767 341.0770 15.22240196 88970","2021-059K","48888","6877.222","94.597","504.643","493.532","0"
"GENERATED VIA SPACETRACK.ORG API","18 SPCS","48888","SPACEBEE-103","PAYLOAD","U","21059K","2023-02-03 08:49:03","563904","15.22240196","0.0008078","97.5773","169.1341","19.0767","341.077","0","999","8897","0.0008607","0.00019772","0","3770323","0 SPACEBEE-103","1 48888U 21059K   23034.36740236  .00019772  00000-0  86070-3 0  9996","2 48888  97.5773 169.1341 0008078  19.0767 341.0770 15.22240196 88970","2021-059K","48888","6877.222","94.597","504.643","493.532","0"
"GENERATED VIA SPACETRACK.ORG API","18 SPCS","48888","SPACEBEE-103","PAYLOAD","U","21059K","2023-02-04 08:28:54","201504","15.2228494","0.0008053","97.5774","170.1281","15.8123","344.3363","0","999","8912","0.00097304","0.000224","0","3771952","0 SPACEBEE-103","1 48888U 21059K   23035.35340511  .00022400  00000-0  97304-3 0  9992","2 48888  97.5774 170.1281 0008053  15.8123 344.3363 15.22284940 89126","2021-059K","48888","6877.087","94.595","504.490","493.414","0"
"GENERATED VIA SPACETRACK.ORG API","18 SPCS","48888","SPACEBEE-103","PAYLOAD","U","21059K","2023-02-04 21:06:08","172000","15.22307023","0.0007963","97.5777","170.6578","13.7976","346.3476","0","999","8920","0.00081997","0.00018867","0","3772349","0 SPACEBEE-103","1 48888U 21059K   23035.87926125  .00018867  00000-0  81997-3 0  9993","2 48888  97.5777 170.6578 0007963  13.7976 346.3476 15.22307023 89209","2021-059K","48888","6877.021","94.593","504.362","493.410","0"
"GENERATED VIA SPACETRACK.ORG API","18 SPCS","48888","SPACEBEE-103","PAYLOAD","U","21059K","2023-02-04 21:06:08","172000","15.22307023","0.0007963","97.5777","170.6578","13.7976","346.3476","0","999","8920","0.00081997","0.00018867","0","3772514","0 SPACEBEE-103","1 48888U 21059K   23035.87926125  .00018867  00000-0  81997-3 0  9993","2 48888  97.5777 170.6578 0007963  13.7976 346.3476 15.22307023 89209","2021-059K","48888","6877.021","94.593","504.362","493.410","0"
"GENERATED VIA SPACETRACK.ORG API","18 SPCS","48888","SPACEBEE-103","PAYLOAD","U","21059K","2023-02-05 14:27:18","836640","15.2233744","0.0007942","97.5776","171.3864","11.1506","348.9905","0","999","8931","0.00089109","0.00020533","0","3773728","0 SPACEBEE-103","1 48888U 21059K   23036.60230135  .00020533  00000-0  89109-3 0  9990","2 48888  97.5776 171.3864 0007942  11.1506 348.9905 15.22337440 89315","2021-059K","48888","6876.929","94.591","504.256","493.333","0"
"GENERATED VIA SPACETRACK.ORG API","18 SPCS","48888","SPACEBEE-103","PAYLOAD","U","21059K","2023-02-05 22:20:34","176768","15.22352717","0.0007945","97.5778","171.7178","10.008","350.1313","0","999","8936","0.00093029","0.00021452","0","3774172","0 SPACEBEE-103","1 48888U 21059K   23036.93095112  .00021452  00000-0  93029-3 0  9997","2 48888  97.5778 171.7178 0007945  10.0080 350.1313 15.22352717 89364","2021-059K","48888","6876.883","94.590","504.212","493.285","0"
"GENERATED VIA SPACETRACK.ORG API","18 SPCS","48888","SPACEBEE-103","PAYLOAD","U","21059K","2023-02-05 22:20:34","176768","15.22352717","0.0007945","97.5778","171.7178","10.008","350.1313","0","999","8936","0.00093029","0.00021452","0","3774577","0 SPACEBEE-103","1 48888U 21059K   23036.93095112  .00021452  00000-0  93029-3 0  9997","2 48888  97.5778 171.7178 0007945  10.0080 350.1313 15.22352717 89364","2021-059K","48888","6876.883","94.590","504.212","493.285","0"
"GENERATED VIA SPACETRACK.ORG API","18 SPCS","48888","SPACEBEE-103","PAYLOAD","U","21059K","2023-02-06 07:48:28","169856","15.22374485","0.0007952","97.5777","172.1156","8.546","351.591","0","999","8942","0.001133","0.00026175","0","3775254","0 SPACEBEE-103","1 48888U 21059K   23037.32532604  .00026175  00000-0  11330-2 0  9994","2 48888  97.5777 172.1156 0007952   8.5460 351.5910 15.22374485 89427","2021-059K","48888","6876.818","94.589","504.151","493.214","0"
"GENERATED VIA SPACETRACK.ORG API","18 SPCS","48888","SPACEBEE-103","PAYLOAD","U","21059K","2023-02-06 20:25:39","371232","15.2240519","0.0007895","97.578","172.6455","6.9105","353.2239","0","999","8950","0.0011987","0.00027728","0","3776034","0 SPACEBEE-103","1 48888U 21059K   23037.85115013  .00027728  00000-0  11987-2 0  9996","2 48888  97.5780 172.6455 0007895   6.9105 353.2239 15.22405190 89502","2021-059K","48888","6876.725","94.587","504.019","493.161","0"
"GENERATED VIA SPACETRACK.ORG API","18 SPCS","48888","SPACEBEE-103","PAYLOAD","U","21059K","2023-02-06 22:00:18","214272","15.2240869","0.0007898","97.578","172.7118","6.7459","353.3882","0","999","8951","0.0012022","0.00027812","0","3775847","0 SPACEBEE-103","1 48888U 21059K   23037.91687748  .00027812  00000-0  12022-2 0  9997","2 48888  97.5780 172.7118 0007898   6.7459 353.3882 15.22408690 89516","2021-059K","48888","6876.715","94.587","504.011","493.148","0"
"GENERATED VIA SPACETRACK.ORG API","18 SPCS","48888","SPACEBEE-103","PAYLOAD","U","21059K","2023-02-07 07:28:10","836192","15.22437828","0.0007972","97.5781","173.1098","5.3405","354.7914","0","999","8957","0.0014216","0.00032953","0","3777208","0 SPACEBEE-103","1 48888U 21059K   23038.31123653  .00032953  00000-0  14216-2 0  9991","2 48888  97.5781 173.1098 0007972   5.3405 354.7914 15.22437828 89570","2021-059K","48888","6876.627","94.585","503.974","493.010","0"
